[{"OBJECT_NAME":"STARLINK-3688","OBJECT_ID":"2022-041BB","EPOCH":"2026-03-09T12:00:29.064096","MEAN_MOTION":15.0883643,"ECCENTRICITY":0.00013777,"INCLINATION":53.2173,"RA_OF_ASC_NODE":90.0368,"ARG_OF_PERICENTER":69.9089,"MEAN_ANOMALY":290.2052,"EPHEMERIS_TYPE":0,"CLASSIFICATION_TYPE":"U","NORAD_CAT_ID":52310,"ELEMENT_SET_NO":999,"REV_AT_EPOCH":21583,"BSTAR":8.18945e-7,"MEAN_MOTION_DOT":-2.75e-6,"MEAN_MOTION_DDOT":0},{"OBJECT_NAME":"OKEAN-3","OBJECT_ID":"1991-039A","EPOCH":"2026-03-09T19:29:17.530944","MEAN_MOTION":15.0480588,"ECCENTRICITY":0.00139411,"INCLINATION":82.519,"RA_OF_ASC_NODE":336.7249,"ARG_OF_PERICENTER":337.9296,"MEAN_ANOMALY":22.1329,"EPHEMERIS_TYPE":0,"CLASSIFICATION_TYPE":"U","NORAD_CAT_ID":21397,"ELEMENT_SET_NO":999,"REV_AT_EPOCH":86505,"BSTAR":0.00031884915,"MEAN_MOTION_DOT":4.536e-5,"MEAN_MOTION_DDOT":0}]
